ONEWEB-0098             
1 45442U 20020U   25008.57585719 -.00000539  00000+0 -15580-2 0  9994
2 45442  87.8910 125.6147 0001745 113.5597 246.5714 13.11415173233888
ONEWEB-0055             
1 45443U 20020V   25008.56146163 -.00000159  00000+0 -48449-3 0  9999
2 45443  87.8911 125.6208 0001560 109.2083 250.9214 13.11417666233855
ONEWEB-0093             
1 45444U 20020W   25008.38429023  .00000605  00000+0  16723-2 0  9992
2 45444  87.8916 125.6387 0001327 110.3829 249.7442 13.11416190233895
ONEWEB-0029             
1 45445U 20020X   25008.55552801  .00000104  00000+0  25638-3 0  9993
2 45445  87.8912 125.6183 0001406 102.9685 257.1600 13.11414171233897
ONEWEB-0068             
1 45446U 20020Y   25008.38346720  .00000495  00000+0  13608-2 0  9992
2 45446  87.8912 125.6405 0001397 103.6118 256.5165 13.11431522233813
ONEWEB-0046             
1 45447U 20020Z   25008.60469653  .00000442  00000+0  12104-2 0  9991
2 45447  87.8914 125.6061 0001583  94.3083 265.8226 13.11420766233851
ONEWEB-0063             
1 45448U 20020AA  25008.55721917  .00000031  00000+0  52681-4 0  9990
2 45448  87.8910 125.6148 0001786  99.0831 261.0499 13.11414075233937
ONEWEB-0019             
1 45449U 20020AB  25008.60809313  .00000514  00000+0  14137-2 0  9992
2 45449  87.8917 125.6160 0001725 107.9531 252.1785 13.11417850233784
